CCSDS_OMM_VERS = 2.0
CREATION_DATE  = 
ORIGINATOR     = 

OBJECT_NAME    = STARLINK-35986
OBJECT_ID      = 2025-281F
CENTER_NAME    = EARTH
REF_FRAME      = TEME
TIME_SYSTEM    = UTC
MEAN_ELEMENT_THEORY = SGP/SGP4

EPOCH          = 2025-12-25T08:00:01.000224
MEAN_MOTION    = 15.53769937
ECCENTRICITY   = .00012129
INCLINATION    = 43.0000
RA_OF_ASC_NODE = 46.0023
ARG_OF_PERICENTER = 267.8940
MEAN_ANOMALY   = 98.3738

EPHEMERIS_TYPE = 0
CLASSIFICATION_TYPE = U
NORAD_CAT_ID   = 66853
ELEMENT_SET_NO = 999
REV_AT_EPOCH   = 341
BSTAR          = -.33981001E-1
MEAN_MOTION_DOT = -.1999886E-1
MEAN_MOTION_DDOT = 0

CCSDS_OMM_VERS = 2.0
CREATION_DATE  = 
ORIGINATOR     = 

OBJECT_NAME    = STARLINK-36087
OBJECT_ID      = 2025-281G
CENTER_NAME    = EARTH
REF_FRAME      = TEME
TIME_SYSTEM    = UTC
MEAN_ELEMENT_THEORY = SGP/SGP4

EPOCH          = 2025-12-25T08:00:01.000224
MEAN_MOTION    = 15.53766724
ECCENTRICITY   = .00012189
INCLINATION    = 42.9999
RA_OF_ASC_NODE = 45.9970
ARG_OF_PERICENTER = 269.8513
MEAN_ANOMALY   = 98.3361

EPHEMERIS_TYPE = 0
CLASSIFICATION_TYPE = U
NORAD_CAT_ID   = 66854
ELEMENT_SET_NO = 999
REV_AT_EPOCH   = 341
BSTAR          = -.3392666E-1
MEAN_MOTION_DOT = -.1996815E-1
MEAN_MOTION_DDOT = 0

CCSDS_OMM_VERS = 2.0
CREATION_DATE  = 
ORIGINATOR     = 

OBJECT_NAME    = STARLINK-36090
OBJECT_ID      = 2025-281H
CENTER_NAME    = EARTH
REF_FRAME      = TEME
TIME_SYSTEM    = UTC
MEAN_ELEMENT_THEORY = SGP/SGP4

EPOCH          = 2025-12-25T08:00:01.000224
MEAN_MOTION    = 15.53770975
ECCENTRICITY   = .00012585
INCLINATION    = 43.0001
RA_OF_ASC_NODE = 45.9925
ARG_OF_PERICENTER = 273.1076
MEAN_ANOMALY   = 96.9925

EPHEMERIS_TYPE = 0
CLASSIFICATION_TYPE = U
NORAD_CAT_ID   = 66855
ELEMENT_SET_NO = 999
REV_AT_EPOCH   = 329
BSTAR          = -.33995498E-1
MEAN_MOTION_DOT = -.2000744E-1
MEAN_MOTION_DDOT = 0

CCSDS_OMM_VERS = 2.0
CREATION_DATE  = 
ORIGINATOR     = 

OBJECT_NAME    = STARLINK-36072
OBJECT_ID      = 2025-281J
CENTER_NAME    = EARTH
REF_FRAME      = TEME
TIME_SYSTEM    = UTC
MEAN_ELEMENT_THEORY = SGP/SGP4

EPOCH          = 2025-12-25T08:00:01.000224
MEAN_MOTION    = 15.53768357
ECCENTRICITY   = .00012332
INCLINATION    = 43.0004
RA_OF_ASC_NODE = 45.9872
ARG_OF_PERICENTER = 265.6476
MEAN_ANOMALY   = 106.3730

EPHEMERIS_TYPE = 0
CLASSIFICATION_TYPE = U
NORAD_CAT_ID   = 66856
ELEMENT_SET_NO = 999
REV_AT_EPOCH   = 341
BSTAR          = -.3396979E-1
MEAN_MOTION_DOT = -.1999203E-1
MEAN_MOTION_DDOT = 0

CCSDS_OMM_VERS = 2.0
CREATION_DATE  = 
ORIGINATOR     = 

OBJECT_NAME    = STARLINK-36083
OBJECT_ID      = 2025-281K
CENTER_NAME    = EARTH
REF_FRAME      = TEME
TIME_SYSTEM    = UTC
MEAN_ELEMENT_THEORY = SGP/SGP4

EPOCH          = 2025-12-25T08:00:01.000224
MEAN_MOTION    = 15.53774901
ECCENTRICITY   = .00013968
INCLINATION    = 43.0007
RA_OF_ASC_NODE = 45.9824
ARG_OF_PERICENTER = 264.5937
MEAN_ANOMALY   = 109.3393

EPHEMERIS_TYPE = 0
CLASSIFICATION_TYPE = U
NORAD_CAT_ID   = 66857
ELEMENT_SET_NO = 999
REV_AT_EPOCH   = 341
BSTAR          = -.34066136E-1
MEAN_MOTION_DOT = -.2004804E-1
MEAN_MOTION_DDOT = 0

CCSDS_OMM_VERS = 2.0
CREATION_DATE  = 
ORIGINATOR     = 

OBJECT_NAME    = STARLINK-35118
OBJECT_ID      = 2025-281L
CENTER_NAME    = EARTH
REF_FRAME      = TEME
TIME_SYSTEM    = UTC
MEAN_ELEMENT_THEORY = SGP/SGP4

EPOCH          = 2025-12-25T08:00:01.000224
MEAN_MOTION    = 15.53777818
ECCENTRICITY   = .00016099
INCLINATION    = 43.0005
RA_OF_ASC_NODE = 45.9773
ARG_OF_PERICENTER = 267.9922
MEAN_ANOMALY   = 107.8565

EPHEMERIS_TYPE = 0
CLASSIFICATION_TYPE = U
NORAD_CAT_ID   = 66858
ELEMENT_SET_NO = 999
REV_AT_EPOCH   = 319
BSTAR          = -.34139967E-1
MEAN_MOTION_DOT = -.2009013E-1
MEAN_MOTION_DDOT = 0

CCSDS_OMM_VERS = 2.0
CREATION_DATE  = 
ORIGINATOR     = 

OBJECT_NAME    = STARLINK-35646
OBJECT_ID      = 2025-281M
CENTER_NAME    = EARTH
REF_FRAME      = TEME
TIME_SYSTEM    = UTC
MEAN_ELEMENT_THEORY = SGP/SGP4

EPOCH          = 2025-12-25T08:00:01.000224
MEAN_MOTION    = 15.53766898
ECCENTRICITY   = .00014351
INCLINATION    = 43.0000
RA_OF_ASC_NODE = 45.9738
ARG_OF_PERICENTER = 264.5842
MEAN_ANOMALY   = 113.1850

EPHEMERIS_TYPE = 0
CLASSIFICATION_TYPE = U
NORAD_CAT_ID   = 66859
ELEMENT_SET_NO = 999
REV_AT_EPOCH   = 341
BSTAR          = -.33766283E-1
MEAN_MOTION_DOT = -.19885E-1
MEAN_MOTION_DDOT = 0

CCSDS_OMM_VERS = 2.0
CREATION_DATE  = 
ORIGINATOR     = 

OBJECT_NAME    = STARLINK-35987
OBJECT_ID      = 2025-281N
CENTER_NAME    = EARTH
REF_FRAME      = TEME
TIME_SYSTEM    = UTC
MEAN_ELEMENT_THEORY = SGP/SGP4

EPOCH          = 2025-12-25T08:00:01.000224
MEAN_MOTION    = 15.53762832
ECCENTRICITY   = .00015513
INCLINATION    = 43.0001
RA_OF_ASC_NODE = 45.9496
ARG_OF_PERICENTER = 272.7880
MEAN_ANOMALY   = 114.5662

EPHEMERIS_TYPE = 0
CLASSIFICATION_TYPE = U
NORAD_CAT_ID   = 66860
ELEMENT_SET_NO = 999
REV_AT_EPOCH   = 341
BSTAR          = -.33600689E-1
MEAN_MOTION_DOT = -.1979565E-1
MEAN_MOTION_DDOT = 0

CCSDS_OMM_VERS = 2.0
CREATION_DATE  = 
ORIGINATOR     = 

OBJECT_NAME    = STARLINK-35991
OBJECT_ID      = 2025-281P
CENTER_NAME    = EARTH
REF_FRAME      = TEME
TIME_SYSTEM    = UTC
MEAN_ELEMENT_THEORY = SGP/SGP4

EPOCH          = 2025-12-25T08:00:01.000224
MEAN_MOTION    = 15.53746287
ECCENTRICITY   = .00016345
INCLINATION    = 43.0007
RA_OF_ASC_NODE = 45.9636
ARG_OF_PERICENTER = 266.9522
MEAN_ANOMALY   = 114.6574

EPHEMERIS_TYPE = 0
CLASSIFICATION_TYPE = U
NORAD_CAT_ID   = 66861
ELEMENT_SET_NO = 999
REV_AT_EPOCH   = 341
BSTAR          = -.33008888E-1
MEAN_MOTION_DOT = -.1947245E-1
MEAN_MOTION_DDOT = 0

CCSDS_OMM_VERS = 2.0
CREATION_DATE  = 
ORIGINATOR     = 

OBJECT_NAME    = STARLINK-35974
OBJECT_ID      = 2025-281Q
CENTER_NAME    = EARTH
REF_FRAME      = TEME
TIME_SYSTEM    = UTC
MEAN_ELEMENT_THEORY = SGP/SGP4

EPOCH          = 2025-12-25T08:00:01.000224
MEAN_MOTION    = 15.53777804
ECCENTRICITY   = .00014436
INCLINATION    = 43.0004
RA_OF_ASC_NODE = 45.9679
ARG_OF_PERICENTER = 265.9518
MEAN_ANOMALY   = 113.7320

EPHEMERIS_TYPE = 0
CLASSIFICATION_TYPE = U
NORAD_CAT_ID   = 66862
ELEMENT_SET_NO = 999
REV_AT_EPOCH   = 331
BSTAR          = -.34176239E-1
MEAN_MOTION_DOT = -.2010819E-1
MEAN_MOTION_DDOT = 0

CCSDS_OMM_VERS = 2.0
CREATION_DATE  = 
ORIGINATOR     = 

OBJECT_NAME    = STARLINK-36134
OBJECT_ID      = 2025-281R
CENTER_NAME    = EARTH
REF_FRAME      = TEME
TIME_SYSTEM    = UTC
MEAN_ELEMENT_THEORY = SGP/SGP4

EPOCH          = 2025-12-25T08:00:01.000224
MEAN_MOTION    = 15.53740531
ECCENTRICITY   = .00013577
INCLINATION    = 43.0003
RA_OF_ASC_NODE = 45.9596
ARG_OF_PERICENTER = 273.7381
MEAN_ANOMALY   = 109.7876

EPHEMERIS_TYPE = 0
CLASSIFICATION_TYPE = U
NORAD_CAT_ID   = 66863
ELEMENT_SET_NO = 999
REV_AT_EPOCH   = 341
BSTAR          = -.32812182E-1
MEAN_MOTION_DOT = -.1901942E-1
MEAN_MOTION_DDOT = 0

CCSDS_OMM_VERS = 2.0
CREATION_DATE  = 
ORIGINATOR     = 

OBJECT_NAME    = STARLINK-36070
OBJECT_ID      = 2025-281S
CENTER_NAME    = EARTH
REF_FRAME      = TEME
TIME_SYSTEM    = UTC
MEAN_ELEMENT_THEORY = SGP/SGP4

EPOCH          = 2025-12-25T08:00:01.000224
MEAN_MOTION    = 15.53767226
ECCENTRICITY   = .00014986
INCLINATION    = 42.9999
RA_OF_ASC_NODE = 45.9537
ARG_OF_PERICENTER = 272.5168
MEAN_ANOMALY   = 112.9220

EPHEMERIS_TYPE = 0
CLASSIFICATION_TYPE = U
NORAD_CAT_ID   = 66864
ELEMENT_SET_NO = 999
REV_AT_EPOCH   = 344
BSTAR          = -.33893568E-1
MEAN_MOTION_DOT = -.199527E-1
MEAN_MOTION_DDOT = 0

CCSDS_OMM_VERS = 2.0
CREATION_DATE  = 
ORIGINATOR     = 

OBJECT_NAME    = STARLINK-36117
OBJECT_ID      = 2025-281T
CENTER_NAME    = EARTH
REF_FRAME      = TEME
TIME_SYSTEM    = UTC
MEAN_ELEMENT_THEORY = SGP/SGP4

EPOCH          = 2025-12-25T08:00:01.000224
MEAN_MOTION    = 15.53762938
ECCENTRICITY   = .00015504
INCLINATION    = 42.9999
RA_OF_ASC_NODE = 45.9451
ARG_OF_PERICENTER = 271.6685
MEAN_ANOMALY   = 117.6027

EPHEMERIS_TYPE = 0
CLASSIFICATION_TYPE = U
NORAD_CAT_ID   = 66865
ELEMENT_SET_NO = 999
REV_AT_EPOCH   = 341
BSTAR          = -.33587128E-1
MEAN_MOTION_DOT = -.1978856E-1
MEAN_MOTION_DDOT = 0

CCSDS_OMM_VERS = 2.0
CREATION_DATE  = 
ORIGINATOR     = 

OBJECT_NAME    = STARLINK-36126
OBJECT_ID      = 2025-281U
CENTER_NAME    = EARTH
REF_FRAME      = TEME
TIME_SYSTEM    = UTC
MEAN_ELEMENT_THEORY = SGP/SGP4

EPOCH          = 2025-12-25T08:00:01.000224
MEAN_MOTION    = 15.53771225
ECCENTRICITY   = .00015264
INCLINATION    = 43.0002
RA_OF_ASC_NODE = 45.9392
ARG_OF_PERICENTER = 271.0734
MEAN_ANOMALY   = 120.1165

EPHEMERIS_TYPE = 0
CLASSIFICATION_TYPE = U
NORAD_CAT_ID   = 66866
ELEMENT_SET_NO = 999
REV_AT_EPOCH   = 344
BSTAR          = -.34007865E-1
MEAN_MOTION_DOT = -.2001572E-1
MEAN_MOTION_DDOT = 0

CCSDS_OMM_VERS = 2.0
CREATION_DATE  = 
ORIGINATOR     = 

OBJECT_NAME    = STARLINK-36101
OBJECT_ID      = 2025-281V
CENTER_NAME    = EARTH
REF_FRAME      = TEME
TIME_SYSTEM    = UTC
MEAN_ELEMENT_THEORY = SGP/SGP4

EPOCH          = 2025-12-25T08:00:01.000224
MEAN_MOTION    = 15.53770261
ECCENTRICITY   = .00016357
INCLINATION    = 43.0004
RA_OF_ASC_NODE = 45.9345
ARG_OF_PERICENTER = 268.9882
MEAN_ANOMALY   = 124.1204

EPHEMERIS_TYPE = 0
CLASSIFICATION_TYPE = U
NORAD_CAT_ID   = 66867
ELEMENT_SET_NO = 999
REV_AT_EPOCH   = 325
BSTAR          = -.33979969E-1
MEAN_MOTION_DOT = -.2000105E-1
MEAN_MOTION_DDOT = 0

